CCSDS_OMM_VERS = 2.0
CREATION_DATE  = 
ORIGINATOR     = 

OBJECT_NAME    = SL-4 R/B
OBJECT_ID      = 2014-021B
CENTER_NAME    = EARTH
REF_FRAME      = TEME
TIME_SYSTEM    = UTC
MEAN_ELEMENT_THEORY = SGP/SGP4

EPOCH          = 2026-02-13T03:27:42.176160
MEAN_MOTION    = 15.38366268
ECCENTRICITY   = .0098881
INCLINATION    = 51.6068
RA_OF_ASC_NODE = 96.9442
ARG_OF_PERICENTER = 13.5314
MEAN_ANOMALY   = 346.8286

EPHEMERIS_TYPE = 0
CLASSIFICATION_TYPE = U
NORAD_CAT_ID   = 39679
ELEMENT_SET_NO = 999
REV_AT_EPOCH   = 65249
BSTAR          = .28525E-3
MEAN_MOTION_DOT = .12541E-3
MEAN_MOTION_DDOT = 0

CCSDS_OMM_VERS = 2.0
CREATION_DATE  = 
ORIGINATOR     = 

OBJECT_NAME    = ALOS-2
OBJECT_ID      = 2014-029A
CENTER_NAME    = EARTH
REF_FRAME      = TEME
TIME_SYSTEM    = UTC
MEAN_ELEMENT_THEORY = SGP/SGP4

EPOCH          = 2026-02-13T05:39:29.872224
MEAN_MOTION    = 14.79451164
ECCENTRICITY   = .0001568
INCLINATION    = 97.9207
RA_OF_ASC_NODE = 143.1853
ARG_OF_PERICENTER = 107.4964
MEAN_ANOMALY   = 252.6419

EPHEMERIS_TYPE = 0
CLASSIFICATION_TYPE = U
NORAD_CAT_ID   = 39766
ELEMENT_SET_NO = 999
REV_AT_EPOCH   = 63325
BSTAR          = .12539E-3
MEAN_MOTION_DOT = .885E-5
MEAN_MOTION_DDOT = 0

CCSDS_OMM_VERS = 2.0
CREATION_DATE  = 
ORIGINATOR     = 

OBJECT_NAME    = YAOGAN-29
OBJECT_ID      = 2015-069A
CENTER_NAME    = EARTH
REF_FRAME      = TEME
TIME_SYSTEM    = UTC
MEAN_ELEMENT_THEORY = SGP/SGP4

EPOCH          = 2026-02-13T05:37:29.778816
MEAN_MOTION    = 14.82968487
ECCENTRICITY   = .0002859
INCLINATION    = 98.0178
RA_OF_ASC_NODE = 72.5963
ARG_OF_PERICENTER = 78.4972
MEAN_ANOMALY   = 281.6562

EPHEMERIS_TYPE = 0
CLASSIFICATION_TYPE = U
NORAD_CAT_ID   = 41038
ELEMENT_SET_NO = 999
REV_AT_EPOCH   = 55225
BSTAR          = .1259E-3
MEAN_MOTION_DOT = .968E-5
MEAN_MOTION_DDOT = 0

CCSDS_OMM_VERS = 2.0
CREATION_DATE  = 
ORIGINATOR     = 

OBJECT_NAME    = ASTRO-H (HITOMI)
OBJECT_ID      = 2016-012A
CENTER_NAME    = EARTH
REF_FRAME      = TEME
TIME_SYSTEM    = UTC
MEAN_ELEMENT_THEORY = SGP/SGP4

EPOCH          = 2026-02-12T15:29:49.753536
MEAN_MOTION    = 15.09821603
ECCENTRICITY   = .00098242
INCLINATION    = 30.9982
RA_OF_ASC_NODE = 158.1365
ARG_OF_PERICENTER = 80.7802
MEAN_ANOMALY   = 279.3947

EPHEMERIS_TYPE = 0
CLASSIFICATION_TYPE = U
NORAD_CAT_ID   = 41337
ELEMENT_SET_NO = 999
REV_AT_EPOCH   = 54844
BSTAR          = .20722681E-3
MEAN_MOTION_DOT = .3531E-4
MEAN_MOTION_DDOT = 0

CCSDS_OMM_VERS = 2.0
CREATION_DATE  = 
ORIGINATOR     = 

OBJECT_NAME    = HXMT (HUIYAN)
OBJECT_ID      = 2017-034A
CENTER_NAME    = EARTH
REF_FRAME      = TEME
TIME_SYSTEM    = UTC
MEAN_ELEMENT_THEORY = SGP/SGP4

EPOCH          = 2026-02-13T03:46:26.311008
MEAN_MOTION    = 15.17139876
ECCENTRICITY   = .003067
INCLINATION    = 43.0134
RA_OF_ASC_NODE = 153.0282
ARG_OF_PERICENTER = 78.9861
MEAN_ANOMALY   = 281.4434

EPHEMERIS_TYPE = 0
CLASSIFICATION_TYPE = U
NORAD_CAT_ID   = 42758
ELEMENT_SET_NO = 999
REV_AT_EPOCH   = 47881
BSTAR          = .34533E-3
MEAN_MOTION_DOT = .6822E-4
MEAN_MOTION_DDOT = 0

CCSDS_OMM_VERS = 2.0
CREATION_DATE  = 
ORIGINATOR     = 

OBJECT_NAME    = CZ-2C R/B
OBJECT_ID      = 2018-054D
CENTER_NAME    = EARTH
REF_FRAME      = TEME
TIME_SYSTEM    = UTC
MEAN_ELEMENT_THEORY = SGP/SGP4

EPOCH          = 2026-02-13T04:40:41.697984
MEAN_MOTION    = 16.00089570
ECCENTRICITY   = .001205
INCLINATION    = 35.1285
RA_OF_ASC_NODE = 111.1557
ARG_OF_PERICENTER = 68.7378
MEAN_ANOMALY   = 291.4649

EPHEMERIS_TYPE = 0
CLASSIFICATION_TYPE = U
NORAD_CAT_ID   = 43521
ELEMENT_SET_NO = 999
REV_AT_EPOCH   = 42496
BSTAR          = .88972E-3
MEAN_MOTION_DOT = .484969E-2
MEAN_MOTION_DDOT = .10048E-3

CCSDS_OMM_VERS = 2.0
CREATION_DATE  = 
ORIGINATOR     = 

OBJECT_NAME    = SAOCOM 1A
OBJECT_ID      = 2018-076A
CENTER_NAME    = EARTH
REF_FRAME      = TEME
TIME_SYSTEM    = UTC
MEAN_ELEMENT_THEORY = SGP/SGP4

EPOCH          = 2026-02-13T04:28:44.397408
MEAN_MOTION    = 14.82137755
ECCENTRICITY   = .0001356
INCLINATION    = 97.8876
RA_OF_ASC_NODE = 232.7058
ARG_OF_PERICENTER = 80.5738
MEAN_ANOMALY   = 279.5629

EPHEMERIS_TYPE = 0
CLASSIFICATION_TYPE = U
NORAD_CAT_ID   = 43641
ELEMENT_SET_NO = 999
REV_AT_EPOCH   = 39773
BSTAR          = -.62703E-4
MEAN_MOTION_DOT = -.551E-5
MEAN_MOTION_DDOT = 0

CCSDS_OMM_VERS = 2.0
CREATION_DATE  = 
ORIGINATOR     = 

OBJECT_NAME    = H-2A R/B
OBJECT_ID      = 2018-084L
CENTER_NAME    = EARTH
REF_FRAME      = TEME
TIME_SYSTEM    = UTC
MEAN_ELEMENT_THEORY = SGP/SGP4

EPOCH          = 2026-02-13T02:52:00.304608
MEAN_MOTION    = 15.40259910
ECCENTRICITY   = .0026349
INCLINATION    = 98.8759
RA_OF_ASC_NODE = 256.2760
ARG_OF_PERICENTER = 107.7121
MEAN_ANOMALY   = 252.7000

EPHEMERIS_TYPE = 0
CLASSIFICATION_TYPE = U
NORAD_CAT_ID   = 43682
ELEMENT_SET_NO = 999
REV_AT_EPOCH   = 40199
BSTAR          = .46822E-3
MEAN_MOTION_DOT = .18985E-3
MEAN_MOTION_DDOT = 0

CCSDS_OMM_VERS = 2.0
CREATION_DATE  = 
ORIGINATOR     = 

OBJECT_NAME    = SAOCOM 1B
OBJECT_ID      = 2020-059A
CENTER_NAME    = EARTH
REF_FRAME      = TEME
TIME_SYSTEM    = UTC
MEAN_ELEMENT_THEORY = SGP/SGP4

EPOCH          = 2026-02-13T03:36:33.192288
MEAN_MOTION    = 14.82145312
ECCENTRICITY   = .0001483
INCLINATION    = 97.8874
RA_OF_ASC_NODE = 231.7681
ARG_OF_PERICENTER = 86.5569
MEAN_ANOMALY   = 273.5813

EPHEMERIS_TYPE = 0
CLASSIFICATION_TYPE = U
NORAD_CAT_ID   = 46265
ELEMENT_SET_NO = 999
REV_AT_EPOCH   = 29511
BSTAR          = .12253E-3
MEAN_MOTION_DOT = .923E-5
MEAN_MOTION_DDOT = 0

CCSDS_OMM_VERS = 2.0
CREATION_DATE  = 
ORIGINATOR     = 

OBJECT_NAME    = CSS (TIANHE)
OBJECT_ID      = 2021-035A
CENTER_NAME    = EARTH
REF_FRAME      = TEME
TIME_SYSTEM    = UTC
MEAN_ELEMENT_THEORY = SGP/SGP4

EPOCH          = 2026-02-13T03:12:51.982272
MEAN_MOTION    = 15.59559329
ECCENTRICITY   = .0004134
INCLINATION    = 41.4682
RA_OF_ASC_NODE = 357.4515
ARG_OF_PERICENTER = 78.6328
MEAN_ANOMALY   = 281.4975

EPHEMERIS_TYPE = 0
CLASSIFICATION_TYPE = U
NORAD_CAT_ID   = 48274
ELEMENT_SET_NO = 999
REV_AT_EPOCH   = 27377
BSTAR          = .23191E-3
MEAN_MOTION_DOT = .18681E-3
MEAN_MOTION_DDOT = 0

CCSDS_OMM_VERS = 2.0
CREATION_DATE  = 
ORIGINATOR     = 

OBJECT_NAME    = COSMOS 2550
OBJECT_ID      = 2021-056A
CENTER_NAME    = EARTH
REF_FRAME      = TEME
TIME_SYSTEM    = UTC
MEAN_ELEMENT_THEORY = SGP/SGP4

EPOCH          = 2026-02-12T16:09:28.311840
MEAN_MOTION    = 15.33832120
ECCENTRICITY   = .00083114
INCLINATION    = 67.1431
RA_OF_ASC_NODE = 116.6034
ARG_OF_PERICENTER = 269.5097
MEAN_ANOMALY   = 90.5105

EPHEMERIS_TYPE = 0
CLASSIFICATION_TYPE = U
NORAD_CAT_ID   = 48865
ELEMENT_SET_NO = 999
REV_AT_EPOCH   = 25962
BSTAR          = .4407408E-5
MEAN_MOTION_DOT = -.47E-6
MEAN_MOTION_DDOT = 0

CCSDS_OMM_VERS = 2.0
CREATION_DATE  = 
ORIGINATOR     = 

OBJECT_NAME    = CZ-2C R/B
OBJECT_ID      = 2022-058K
CENTER_NAME    = EARTH
REF_FRAME      = TEME
TIME_SYSTEM    = UTC
MEAN_ELEMENT_THEORY = SGP/SGP4

EPOCH          = 2026-02-13T03:08:53.563200
MEAN_MOTION    = 15.52482679
ECCENTRICITY   = .0042195
INCLINATION    = 50.1884
RA_OF_ASC_NODE = 84.4472
ARG_OF_PERICENTER = 96.3490
MEAN_ANOMALY   = 264.2288

EPHEMERIS_TYPE = 0
CLASSIFICATION_TYPE = U
NORAD_CAT_ID   = 52794
ELEMENT_SET_NO = 999
REV_AT_EPOCH   = 20631
BSTAR          = .43815E-3
MEAN_MOTION_DOT = .28017E-3
MEAN_MOTION_DDOT = 0

