SL-4 R/B                
1 39679U 14021B   26044.14423815  .00012541  00000+0  28525-3 0  9993
2 39679  51.6068  96.9442 0098881  13.5314 346.8286 15.38366268652498
ALOS-2                  
1 39766U 14029A   26044.23576241  .00000885  00000+0  12539-3 0  9996
2 39766  97.9207 143.1853 0001568 107.4964 252.6419 14.79451164633253
YAOGAN-29               
1 41038U 15069A   26044.23437244  .00000968  00000+0  12590-3 0  9994
2 41038  98.0178  72.5963 0002859  78.4972 281.6562 14.82968487552250
ASTRO-H (HITOMI)        
1 41337U 16012A   26043.64571474  .00003531  00000+0  20723-3 0  9999
2 41337  30.9982 158.1365 0009824  80.7802 279.3947 15.09821603548449
HXMT (HUIYAN)           
1 42758U 17034A   26044.15724897  .00006822  00000+0  34533-3 0  9998
2 42758  43.0134 153.0282 0030670  78.9861 281.4434 15.17139876478811
CZ-2C R/B               
1 43521U 18054D   26044.19492706  .00484969  10048-3  88972-3 0  9990
2 43521  35.1285 111.1557 0012050  68.7378 291.4649 16.00089570424965
SAOCOM 1A               
1 43641U 18076A   26044.18662497 -.00000551  00000+0 -62703-4 0  9993
2 43641  97.8876 232.7058 0001356  80.5738 279.5629 14.82137755397730
H-2A R/B                
1 43682U 18084L   26044.11944797  .00018985  00000+0  46822-3 0  9997
2 43682  98.8759 256.2760 0026349 107.7121 252.7000 15.40259910401997
SAOCOM 1B               
1 46265U 20059A   26044.15038417  .00000923  00000+0  12253-3 0  9993
2 46265  97.8874 231.7681 0001483  86.5569 273.5813 14.82145312295119
CSS (TIANHE)            
1 48274U 21035A   26044.13393498  .00018681  00000+0  23191-3 0  9994
2 48274  41.4682 357.4515 0004134  78.6328 281.4975 15.59559329273773
COSMOS 2550             
1 48865U 21056A   26043.67324435 -.00000047  00000+0  44074-5 0  9999
2 48865  67.1431 116.6034 0008311 269.5097  90.5105 15.33832120259629
CZ-2C R/B               
1 52794U 22058K   26044.13117550  .00028017  00000+0  43815-3 0  9994
2 52794  50.1884  84.4472 0042195  96.3490 264.2288 15.52482679206319
